[
  {
    "id": "25338U",
    "name": "NOAA 15",
    "tle1": "1 25338U 98030A   25092.16482964  .00000343  00000+0  15861-3 0  9992",
    "tle2": "2 25338  98.5427 118.9217 0010064 193.2633 166.8284 14.26929814398646",
    "category": "weather",
    "description": "Launched in 1998, provides critical data for weather forecasting and climate monitoring.",
    "status": "active",
    "frequency": [],
    "modulation": "",
    "image": "/images/satellites/weather/noaa15.jpg",
    "image_source": "https://wikipedia.org",
    "country_image": "/images/flags/usa.png"
  },
  {
    "id": "28054U",
    "name": "DMSP 5D-3 F16 (USA 172)",
    "tle1": "1 28054U 03048A   25092.17581590  .00000335  00000+0  19939-3 0  9992",
    "tle2": "2 28054  99.0180 107.3798 0006478 322.7094 127.0574 14.14325061107129",
    "category": "weather",
    "description": "A military weather satellite launched in 2003, known for its role in monitoring global weather patterns.",
    "status": "active",
    "frequency": [],
    "modulation": "",
    "image": "/images/satellites/weather/dmsp.jpg",
    "image_source": "https://space.skyrocket.de/",
    "country_image": "/images/flags/usa.png"
  },
  {
    "id": "28654U",
    "name": "NOAA 18",
    "tle1": "1 28654U 05018A   25092.10570739  .00000344  00000+0  20600-3 0  9990",
    "tle2": "2 28654  98.8441 172.3488 0013380 327.0407  32.9930 14.13562774 24071",
    "category": "weather",
    "description": "Launched in 2005, supports weather prediction and environmental monitoring with advanced sensors.",
    "status": "active",
    "frequency": [],
    "modulation": "",
    "image": "/images/satellites/weather/noaa18.jpg",
    "image_source": "https://wikipedia.org",
    "country_image": "/images/flags/usa.png"
  },
  {
    "id": "28912U",
    "name": "METEOSAT-9 (MSG-2)",
    "tle1": "1 28912U 05049B   25091.64796066  .00000121  00000+0  00000+0 0  9993",
    "tle2": "2 28912   8.3537  58.3340 0000114 126.7581 284.0859  1.00274261  2583",
    "category": "weather",
    "description": "Part of the European geostationary weather satellite series, providing real-time weather imagery since 2005.",
    "status": "active",
    "frequency": [],
    "modulation": "",
    "image": "/images/satellites/weather/meteosat9.jpg",
    "image_source": "https://wikipedia.org",
    "country_image": "/images/flags/eu.png"
  },
  {
    "id": "29155U",
    "name": "EWS-G1 (GOES 13)",
    "tle1": "1 29155U 06018A   25092.15725832  .00000049  00000+0  00000+0 0  9999",
    "tle2": "2 29155   3.3833  81.7819 0065696 263.1872 140.7176  0.98828584 69024",
    "category": "weather",
    "description": "Launched in 2006, serves as a geostationary weather satellite for monitoring severe weather events.",
    "status": "active",
    "frequency": [],
    "modulation": "",
    "image": "/images/satellites/weather/ewsg1.jpg",
    "image_source": "https://wikipedia.org",
    "country_image": "/images/flags/usa.png"
  },
  {
    "id": "29522U",
    "name": "DMSP 5D-3 F17 (USA 191)",
    "tle1": "1 29522U 06050A   25092.25564120  .00000374  00000+0  21640-3 0  9993",
    "tle2": "2 29522  98.7423 102.8751 0009112 230.7016 129.3350 14.14800507950064",
    "category": "weather",
    "description": "A military satellite launched in 2006, used for weather observation and environmental monitoring.",
    "status": "active",
    "frequency": [],
    "modulation": "",
    "image": "/images/satellites/weather/dmsp.jpg",
    "image_source": "https://space.skyrocket.de/",
    "country_image": "/images/flags/usa.png"
  },
  {
    "id": "32958U",
    "name": "FENGYUN 3A",
    "tle1": "1 32958U 08026A   25091.86798163  .00000316  00000+0  17090-3 0  9997",
    "tle2": "2 32958  98.6418  37.2351 0008119 326.7291  33.3374 14.19408619872907",
    "category": "weather",
    "description": "A Chinese polar-orbiting satellite launched in 2008, providing data for weather forecasting and disaster monitoring.",
    "status": "active",
    "frequency": [],
    "modulation": "",
    "image": "/images/satellites/weather/fengyun3a.jpg",
    "image_source": "https://db.satnogs.org/",
    "country_image": "/images/flags/china.png"
  },
  {
    "id": "33591U",
    "name": "NOAA 19",
    "tle1": "1 33591U 09005A   25092.10096820  .00000321  00000+0  19508-3 0  9990",
    "tle2": "2 33591  99.0037 156.4046 0013700 193.0685 167.0134 14.13328370832434",
    "category": "weather",
    "description": "The last in the NOAA POES series, launched in 2009, providing vital data for weather and climate studies.",
    "status": "active",
    "frequency": [],
    "modulation": "",
    "image": "/images/satellites/weather/noaa19.jpg",
    "image_source": "https://wikipedia.org",
    "country_image": "/images/flags/usa.png"
  },
  {
    "id": "35491U",
    "name": "GOES 14",
    "tle1": "1 35491U 09033A   25091.50292589 -.00000073  00000+0  00000+0 0  9993",
    "tle2": "2 35491   0.5362  88.9362 0000413 166.6329   7.3386  1.00269286  2167",
    "category": "weather",
    "description": "A geostationary satellite launched in 2009, used as a backup for weather monitoring and forecasting.",
    "status": "active",
    "frequency": [],
    "modulation": "",
    "image": "/images/satellites/weather/goes14.jpg",
    "image_source": "https://wikipedia.org",
    "country_image": "/images/flags/usa.png"
  },
  {
    "id": "35951U",
    "name": "DMSP 5D-3 F18 (USA 210)",
    "tle1": "1 35951U 09057A   25092.10779746  .00000528  00000+0  29798-3 0  9995",
    "tle2": "2 35951  98.8547  70.2334 0012253  66.9420 293.3043 14.14568442797203",
    "category": "weather",
    "description": "A military satellite launched in 2009, aiding in global weather observation and analysis.",
    "status": "active",
    "frequency": [],
    "modulation": "",
    "image": "/images/satellites/weather/dmsp.jpg",
    "image_source": "https://space.skyrocket.de/",
    "country_image": "/images/flags/usa.png"
  },
  {
    "id": "36411U",
    "name": "EWS-G2 (GOES 15)",
    "tle1": "1 36411U 10008A   25091.90782493  .00000032  00000+0  00000+0 0  9996",
    "tle2": "2 36411   0.1341  87.1483 0002997 194.6917 296.7516  1.00272364 55215",
    "category": "weather",
    "description": "Provides geostationary weather data and supports severe weather tracking since its launch in 2010.",
    "status": "active",
    "frequency": [],
    "modulation": "",
    "image": "/images/satellites/weather/ewsg2.jpg",
    "image_source": "https://wikipedia.org",
    "country_image": "/images/flags/usa.png"
  },
  {
    "id": "36744U",
    "name": "COMS 1",
    "tle1": "1 36744U 10032A   25091.99244637 -.00000350  00000+0  00000+0 0  9998",
    "tle2": "2 36744   3.6731  81.0017 0000903 278.7230 316.2908  1.00270193 54230",
    "category": "weather",
    "description": "A South Korean satellite launched in 2010, used for weather observation and ocean monitoring.",
    "status": "active",
    "frequency": [],
    "modulation": "",
    "image": "/images/satellites/weather/coms1.jpg",
    "image_source": "https://wikipedia.org",
    "country_image": "/images/flags/south_korea.png"
  },
  {
    "id": "37214U",
    "name": "FENGYUN 3B",
    "tle1": "1 37214U 10059A   25092.21521047  .00000192  00000+0  12346-3 0  9992",
    "tle2": "2 37214  99.0219 129.9127 0021981 358.4424  81.2142 14.14706246745112",
    "category": "weather",
    "description": "A Chinese satellite launched in 2010, providing data for weather forecasting and environmental monitoring.",
    "status": "active",
    "frequency": [],
    "modulation": "",
    "image": "/images/satellites/weather/fengyun3b.jpg",
    "image_source": "https://wikipedia.org",
    "country_image": "/images/flags/china.png"
  },
  {
    "id": "37849U",
    "name": "SUOMI NPP",
    "tle1": "1 37849U 11061A   25092.17063180  .00000233  00000+0  13145-3 0  9998",
    "tle2": "2 37849  98.7526  32.2141 0002134 122.1696 237.9687 14.19511357695863",
    "category": "weather",
    "description": "A joint NASA-NOAA satellite launched in 2011, bridging the gap between older and next-generation weather satellites.",
    "status": "active",
    "frequency": [],
    "modulation": "",
    "image": "/images/satellites/weather/suominpp.jpg",
    "image_source": "https://wikipedia.org",
    "country_image": "/images/flags/usa.png"
  },
  {
    "id": "38552U",
    "name": "METEOSAT-10 (MSG-3)",
    "tle1": "1 38552U 12035B   25091.82433295 -.00000009  00000+0  00000+0 0  9995",
    "tle2": "2 38552   3.6293  62.0353 0001592 255.5999 169.8338  1.00277186 46435",
    "category": "weather",
    "description": "Part of the European geostationary satellite series, offering high-resolution weather imagery since 2012.",
    "status": "active",
    "frequency": [],
    "modulation": "",
    "image": "/images/satellites/weather/meteosat10.jpg",
    "image_source": "https://wikipedia.org",
    "country_image": "/images/flags/eu.png"
  },
  {
    "id": "38771U",
    "name": "METOP-B",
    "tle1": "1 38771U 12049A   25092.19059105  .00000254  00000+0  13587-3 0  9997",
    "tle2": "2 38771  98.5853 148.3064 0001350 135.4311 224.6976 14.21468628650604",
    "category": "weather",
    "description": "A European polar-orbiting satellite launched in 2012, providing data for weather forecasting and climate research.",
    "status": "active",
    "frequency": [],
    "modulation": "",
    "image": "/images/satellites/weather/metopb.jpg",
    "image_source": "https://wikipedia.org",
    "country_image": "/images/flags/eu.png"
  }
]